<?xml version="1.0" encoding="UTF-8"?>
<ndm xmlns:xsi="http://www.w3.org/2001/XMLSchema-instance" xsi:noNamespaceSchemaLocation="https://sanaregistry.org/r/ndmxml_unqualified/ndmxml-2.0.0-master-2.0.xsd">
<omm id="CCSDS_OMM_VERS" version="2.0">
<header><CREATION_DATE/><ORIGINATOR/></header><body><segment><metadata><OBJECT_NAME>QIANFAN-82</OBJECT_NAME><OBJECT_ID>2025-046K</OBJECT_ID><CENTER_NAME>EARTH</CENTER_NAME><REF_FRAME>TEME</REF_FRAME><TIME_SYSTEM>UTC</TIME_SYSTEM><MEAN_ELEMENT_THEORY>SGP4</MEAN_ELEMENT_THEORY></metadata><data><meanElements><EPOCH>2025-10-03T14:32:29.656320</EPOCH><MEAN_MOTION>13.50971419</MEAN_MOTION><ECCENTRICITY>.00115465</ECCENTRICITY><INCLINATION>88.9815</INCLINATION><RA_OF_ASC_NODE>327.1708</RA_OF_ASC_NODE><ARG_OF_PERICENTER>340.4401</ARG_OF_PERICENTER><MEAN_ANOMALY>19.6306</MEAN_ANOMALY></meanElements><tleParameters><EPHEMERIS_TYPE>0</EPHEMERIS_TYPE><CLASSIFICATION_TYPE>U</CLASSIFICATION_TYPE><NORAD_CAT_ID>63168</NORAD_CAT_ID><ELEMENT_SET_NO>999</ELEMENT_SET_NO><REV_AT_EPOCH>3800</REV_AT_EPOCH><BSTAR>.35304999E-3</BSTAR><MEAN_MOTION_DOT>.24E-5</MEAN_MOTION_DOT><MEAN_MOTION_DDOT>0</MEAN_MOTION_DDOT></tleParameters></data></segment></body></omm>
<omm id="CCSDS_OMM_VERS" version="2.0">
<header><CREATION_DATE/><ORIGINATOR/></header><body><segment><metadata><OBJECT_NAME>QIANFAN-83</OBJECT_NAME><OBJECT_ID>2025-046L</OBJECT_ID><CENTER_NAME>EARTH</CENTER_NAME><REF_FRAME>TEME</REF_FRAME><TIME_SYSTEM>UTC</TIME_SYSTEM><MEAN_ELEMENT_THEORY>SGP4</MEAN_ELEMENT_THEORY></metadata><data><meanElements><EPOCH>2025-10-03T14:39:50.344704</EPOCH><MEAN_MOTION>13.61959054</MEAN_MOTION><ECCENTRICITY>.00124551</ECCENTRICITY><INCLINATION>88.9815</INCLINATION><RA_OF_ASC_NODE>327.0843</RA_OF_ASC_NODE><ARG_OF_PERICENTER>327.5719</ARG_OF_PERICENTER><MEAN_ANOMALY>32.4672</MEAN_ANOMALY></meanElements><tleParameters><EPHEMERIS_TYPE>0</EPHEMERIS_TYPE><CLASSIFICATION_TYPE>U</CLASSIFICATION_TYPE><NORAD_CAT_ID>63169</NORAD_CAT_ID><ELEMENT_SET_NO>999</ELEMENT_SET_NO><REV_AT_EPOCH>3805</REV_AT_EPOCH><BSTAR>.37587327E-3</BSTAR><MEAN_MOTION_DOT>.302E-5</MEAN_MOTION_DOT><MEAN_MOTION_DDOT>0</MEAN_MOTION_DDOT></tleParameters></data></segment></body></omm>
<omm id="CCSDS_OMM_VERS" version="2.0">
<header><CREATION_DATE/><ORIGINATOR/></header><body><segment><metadata><OBJECT_NAME>QIANFAN-84</OBJECT_NAME><OBJECT_ID>2025-046M</OBJECT_ID><CENTER_NAME>EARTH</CENTER_NAME><REF_FRAME>TEME</REF_FRAME><TIME_SYSTEM>UTC</TIME_SYSTEM><MEAN_ELEMENT_THEORY>SGP4</MEAN_ELEMENT_THEORY></metadata><data><meanElements><EPOCH>2025-10-03T15:13:31.265760</EPOCH><MEAN_MOTION>13.50984036</MEAN_MOTION><ECCENTRICITY>.00143682</ECCENTRICITY><INCLINATION>88.9815</INCLINATION><RA_OF_ASC_NODE>327.3009</RA_OF_ASC_NODE><ARG_OF_PERICENTER>334.5734</ARG_OF_PERICENTER><MEAN_ANOMALY>25.4709</MEAN_ANOMALY></meanElements><tleParameters><EPHEMERIS_TYPE>0</EPHEMERIS_TYPE><CLASSIFICATION_TYPE>U</CLASSIFICATION_TYPE><NORAD_CAT_ID>63170</NORAD_CAT_ID><ELEMENT_SET_NO>999</ELEMENT_SET_NO><REV_AT_EPOCH>3793</REV_AT_EPOCH><BSTAR>.30074515E-3</BSTAR><MEAN_MOTION_DOT>.206E-5</MEAN_MOTION_DOT><MEAN_MOTION_DDOT>0</MEAN_MOTION_DDOT></tleParameters></data></segment></body></omm>
<omm id="CCSDS_OMM_VERS" version="2.0">
<header><CREATION_DATE/><ORIGINATOR/></header><body><segment><metadata><OBJECT_NAME>QIANFAN-85</OBJECT_NAME><OBJECT_ID>2025-046N</OBJECT_ID><CENTER_NAME>EARTH</CENTER_NAME><REF_FRAME>TEME</REF_FRAME><TIME_SYSTEM>UTC</TIME_SYSTEM><MEAN_ELEMENT_THEORY>SGP4</MEAN_ELEMENT_THEORY></metadata><data><meanElements><EPOCH>2025-09-30T10:41:57.560640</EPOCH><MEAN_MOTION>13.50980190</MEAN_MOTION><ECCENTRICITY>.00121249</ECCENTRICITY><INCLINATION>88.9820</INCLINATION><RA_OF_ASC_NODE>327.5010</RA_OF_ASC_NODE><ARG_OF_PERICENTER>348.9073</ARG_OF_PERICENTER><MEAN_ANOMALY>11.1809</MEAN_ANOMALY></meanElements><tleParameters><EPHEMERIS_TYPE>0</EPHEMERIS_TYPE><CLASSIFICATION_TYPE>U</CLASSIFICATION_TYPE><NORAD_CAT_ID>63171</NORAD_CAT_ID><ELEMENT_SET_NO>999</ELEMENT_SET_NO><REV_AT_EPOCH>3757</REV_AT_EPOCH><BSTAR>.32688324E-3</BSTAR><MEAN_MOTION_DOT>.223E-5</MEAN_MOTION_DOT><MEAN_MOTION_DDOT>0</MEAN_MOTION_DDOT></tleParameters></data></segment></body></omm>
<omm id="CCSDS_OMM_VERS" version="2.0">
<header><CREATION_DATE/><ORIGINATOR/></header><body><segment><metadata><OBJECT_NAME>QIANFAN-86</OBJECT_NAME><OBJECT_ID>2025-046P</OBJECT_ID><CENTER_NAME>EARTH</CENTER_NAME><REF_FRAME>TEME</REF_FRAME><TIME_SYSTEM>UTC</TIME_SYSTEM><MEAN_ELEMENT_THEORY>SGP4</MEAN_ELEMENT_THEORY></metadata><data><meanElements><EPOCH>2025-10-03T13:33:16.191072</EPOCH><MEAN_MOTION>13.50971141</MEAN_MOTION><ECCENTRICITY>.00099184</ECCENTRICITY><INCLINATION>88.9817</INCLINATION><RA_OF_ASC_NODE>327.0406</RA_OF_ASC_NODE><ARG_OF_PERICENTER>345.6939</ARG_OF_PERICENTER><MEAN_ANOMALY>14.3930</MEAN_ANOMALY></meanElements><tleParameters><EPHEMERIS_TYPE>0</EPHEMERIS_TYPE><CLASSIFICATION_TYPE>U</CLASSIFICATION_TYPE><NORAD_CAT_ID>63172</NORAD_CAT_ID><ELEMENT_SET_NO>999</ELEMENT_SET_NO><REV_AT_EPOCH>3807</REV_AT_EPOCH><BSTAR>.36806562E-3</BSTAR><MEAN_MOTION_DOT>.25E-5</MEAN_MOTION_DOT><MEAN_MOTION_DDOT>0</MEAN_MOTION_DDOT></tleParameters></data></segment></body></omm>
<omm id="CCSDS_OMM_VERS" version="2.0">
<header><CREATION_DATE/><ORIGINATOR/></header><body><segment><metadata><OBJECT_NAME>QIANFAN-87</OBJECT_NAME><OBJECT_ID>2025-046Q</OBJECT_ID><CENTER_NAME>EARTH</CENTER_NAME><REF_FRAME>TEME</REF_FRAME><TIME_SYSTEM>UTC</TIME_SYSTEM><MEAN_ELEMENT_THEORY>SGP4</MEAN_ELEMENT_THEORY></metadata><data><meanElements><EPOCH>2025-10-03T14:38:26.284416</EPOCH><MEAN_MOTION>13.50977814</MEAN_MOTION><ECCENTRICITY>.00104268</ECCENTRICITY><INCLINATION>88.9813</INCLINATION><RA_OF_ASC_NODE>327.1502</RA_OF_ASC_NODE><ARG_OF_PERICENTER>339.1536</ARG_OF_PERICENTER><MEAN_ANOMALY>20.9189</MEAN_ANOMALY></meanElements><tleParameters><EPHEMERIS_TYPE>0</EPHEMERIS_TYPE><CLASSIFICATION_TYPE>U</CLASSIFICATION_TYPE><NORAD_CAT_ID>63173</NORAD_CAT_ID><ELEMENT_SET_NO>999</ELEMENT_SET_NO><REV_AT_EPOCH>3801</REV_AT_EPOCH><BSTAR>.38815469E-3</BSTAR><MEAN_MOTION_DOT>.263E-5</MEAN_MOTION_DOT><MEAN_MOTION_DDOT>0</MEAN_MOTION_DDOT></tleParameters></data></segment></body></omm>
<omm id="CCSDS_OMM_VERS" version="2.0">
<header><CREATION_DATE/><ORIGINATOR/></header><body><segment><metadata><OBJECT_NAME>QIANFAN-88</OBJECT_NAME><OBJECT_ID>2025-046R</OBJECT_ID><CENTER_NAME>EARTH</CENTER_NAME><REF_FRAME>TEME</REF_FRAME><TIME_SYSTEM>UTC</TIME_SYSTEM><MEAN_ELEMENT_THEORY>SGP4</MEAN_ELEMENT_THEORY></metadata><data><meanElements><EPOCH>2025-10-03T15:02:09.449664</EPOCH><MEAN_MOTION>13.50971132</MEAN_MOTION><ECCENTRICITY>.00110932</ECCENTRICITY><INCLINATION>88.9815</INCLINATION><RA_OF_ASC_NODE>327.1013</RA_OF_ASC_NODE><ARG_OF_PERICENTER>347.6410</ARG_OF_PERICENTER><MEAN_ANOMALY>12.4468</MEAN_ANOMALY></meanElements><tleParameters><EPHEMERIS_TYPE>0</EPHEMERIS_TYPE><CLASSIFICATION_TYPE>U</CLASSIFICATION_TYPE><NORAD_CAT_ID>63174</NORAD_CAT_ID><ELEMENT_SET_NO>999</ELEMENT_SET_NO><REV_AT_EPOCH>3804</REV_AT_EPOCH><BSTAR>.3663775E-3</BSTAR><MEAN_MOTION_DOT>.248E-5</MEAN_MOTION_DOT><MEAN_MOTION_DDOT>0</MEAN_MOTION_DDOT></tleParameters></data></segment></body></omm>
<omm id="CCSDS_OMM_VERS" version="2.0">
<header><CREATION_DATE/><ORIGINATOR/></header><body><segment><metadata><OBJECT_NAME>QIANFAN-89</OBJECT_NAME><OBJECT_ID>2025-046S</OBJECT_ID><CENTER_NAME>EARTH</CENTER_NAME><REF_FRAME>TEME</REF_FRAME><TIME_SYSTEM>UTC</TIME_SYSTEM><MEAN_ELEMENT_THEORY>SGP4</MEAN_ELEMENT_THEORY></metadata><data><meanElements><EPOCH>2025-10-02T00:48:51.054336</EPOCH><MEAN_MOTION>13.50971960</MEAN_MOTION><ECCENTRICITY>.00151708</ECCENTRICITY><INCLINATION>88.9819</INCLINATION><RA_OF_ASC_NODE>327.4542</RA_OF_ASC_NODE><ARG_OF_PERICENTER>339.8142</ARG_OF_PERICENTER><MEAN_ANOMALY>20.2408</MEAN_ANOMALY></meanElements><tleParameters><EPHEMERIS_TYPE>0</EPHEMERIS_TYPE><CLASSIFICATION_TYPE>U</CLASSIFICATION_TYPE><NORAD_CAT_ID>63175</NORAD_CAT_ID><ELEMENT_SET_NO>999</ELEMENT_SET_NO><REV_AT_EPOCH>3772</REV_AT_EPOCH><BSTAR>.36111843E-3</BSTAR><MEAN_MOTION_DOT>.245E-5</MEAN_MOTION_DOT><MEAN_MOTION_DDOT>0</MEAN_MOTION_DDOT></tleParameters></data></segment></body></omm>
<omm id="CCSDS_OMM_VERS" version="2.0">
<header><CREATION_DATE/><ORIGINATOR/></header><body><segment><metadata><OBJECT_NAME>QIANFAN-90</OBJECT_NAME><OBJECT_ID>2025-046T</OBJECT_ID><CENTER_NAME>EARTH</CENTER_NAME><REF_FRAME>TEME</REF_FRAME><TIME_SYSTEM>UTC</TIME_SYSTEM><MEAN_ELEMENT_THEORY>SGP4</MEAN_ELEMENT_THEORY></metadata><data><meanElements><EPOCH>2025-10-03T14:49:58.734624</EPOCH><MEAN_MOTION>13.50968411</MEAN_MOTION><ECCENTRICITY>.0011948</ECCENTRICITY><INCLINATION>88.9815</INCLINATION><RA_OF_ASC_NODE>327.2635</RA_OF_ASC_NODE><ARG_OF_PERICENTER>334.4720</ARG_OF_PERICENTER><MEAN_ANOMALY>25.5839</MEAN_ANOMALY></meanElements><tleParameters><EPHEMERIS_TYPE>0</EPHEMERIS_TYPE><CLASSIFICATION_TYPE>U</CLASSIFICATION_TYPE><NORAD_CAT_ID>63176</NORAD_CAT_ID><ELEMENT_SET_NO>999</ELEMENT_SET_NO><REV_AT_EPOCH>3795</REV_AT_EPOCH><BSTAR>.3401418E-3</BSTAR><MEAN_MOTION_DOT>.232E-5</MEAN_MOTION_DOT><MEAN_MOTION_DDOT>0</MEAN_MOTION_DDOT></tleParameters></data></segment></body></omm>
</ndm>
